DRAGONFLY               
1 65729U 98067XH  26020.17078384  .00934801  39567-3  24303-2 0  9999
2 65729  51.6173 296.3131 0007924 150.7470 209.3982 15.94407357 19249
1998-067XK              
1 65731U 98067XK  26019.98541496  .00177712  00000+0  11388-2 0  9993
2 65731  51.6269 301.9166 0004560 112.7646 247.3835 15.75199599 19159
RSP-03                  
1 65732U 98067XL  26020.00432715  .00335840  00000+0  15176-2 0  9999
2 65732  51.6239 299.7561 0005652 127.1920 232.9599 15.82491292 19192
GHS-01                  
1 65733U 98067XM  26019.26024568  .02137156  51261-2  16629-2 0  9993
2 65733  51.6179 298.4544 0007237 176.5958 183.5109 16.15324625 19148
YOTSUBA-KULOVER         
1 65941U 98067XN  26020.02445818  .00127352  00000+0  12200-2 0  9993
2 65941  51.6285 306.6936 0004326 132.7917 227.3443 15.65739151 15848
BOTAN                   
1 65942U 98067XP  26020.02842521  .00218888  00000+0  15077-2 0  9996
2 65942  51.6260 304.4536 0004973 136.1368 224.0027 15.73396611 15874
E-KAGAKU-1              
1 65943U 98067XQ  26020.02443452  .00124899  00000+0  11986-2 0  9990
2 65943  51.6300 306.7010 0002910 137.5395 222.5827 15.65710860 15841
HRC MONOBLOCK CAMERA    
1 66052U 98067XR  26020.19630726  .00070025  00000+0  94664-3 0  9998
2 66052  51.6310 309.3430 0000904  25.4865 334.6172 15.57091497 14821
HTV-X1                  
1 66174U 25241A   26020.17509289  .00021194  00000+0  38548-3 0  9996
2 66174  51.6334 312.1983 0007785  38.3265 321.8276 15.49442598   515
SZ-21 MODULE            
1 66515U 25246C   26019.73419728  .00028507  00000+0  28704-3 0  9996
2 66515  41.4760 143.8781 0002737 205.5931 154.4774 15.64766041 10398
SHENZHOU-22             
1 66645U 25272A   26020.31883826  .00030571  00000+0  35888-3 0  9994
2 66645  41.4666 142.2108 0010731 322.2833  37.7252 15.60744012267640
SOYUZ-MS 28             
1 66664U 25275A   26020.17509289  .00021194  00000+0  38548-3 0  9997
2 66664  51.6334 312.1983 0007785  38.3265 321.8276 15.49442598  1284
