CCSDS_OMM_VERS = 2.0
CREATION_DATE  = 
ORIGINATOR     = 

OBJECT_NAME    = DRAGONFLY
OBJECT_ID      = 1998-067XH
CENTER_NAME    = EARTH
REF_FRAME      = TEME
TIME_SYSTEM    = UTC
MEAN_ELEMENT_THEORY = SGP/SGP4

EPOCH          = 2026-01-20T04:05:55.723776
MEAN_MOTION    = 15.94407357
ECCENTRICITY   = .00079249
INCLINATION    = 51.6173
RA_OF_ASC_NODE = 296.3131
ARG_OF_PERICENTER = 150.7470
MEAN_ANOMALY   = 209.3982

EPHEMERIS_TYPE = 0
CLASSIFICATION_TYPE = U
NORAD_CAT_ID   = 65729
ELEMENT_SET_NO = 999
REV_AT_EPOCH   = 1924
BSTAR          = .24302643E-2
MEAN_MOTION_DOT = .934801E-2
MEAN_MOTION_DDOT = .39567337E-3

CCSDS_OMM_VERS = 2.0
CREATION_DATE  = 
ORIGINATOR     = 

OBJECT_NAME    = 1998-067XK
OBJECT_ID      = 1998-067XK
CENTER_NAME    = EARTH
REF_FRAME      = TEME
TIME_SYSTEM    = UTC
MEAN_ELEMENT_THEORY = SGP/SGP4

EPOCH          = 2026-01-19T23:38:59.852544
MEAN_MOTION    = 15.75199599
ECCENTRICITY   = .00045604
INCLINATION    = 51.6269
RA_OF_ASC_NODE = 301.9166
ARG_OF_PERICENTER = 112.7646
MEAN_ANOMALY   = 247.3835

EPHEMERIS_TYPE = 0
CLASSIFICATION_TYPE = U
NORAD_CAT_ID   = 65731
ELEMENT_SET_NO = 999
REV_AT_EPOCH   = 1915
BSTAR          = .11388366E-2
MEAN_MOTION_DOT = .177712E-2
MEAN_MOTION_DDOT = 0

CCSDS_OMM_VERS = 2.0
CREATION_DATE  = 
ORIGINATOR     = 

OBJECT_NAME    = RSP-03
OBJECT_ID      = 1998-067XL
CENTER_NAME    = EARTH
REF_FRAME      = TEME
TIME_SYSTEM    = UTC
MEAN_ELEMENT_THEORY = SGP/SGP4

EPOCH          = 2026-01-20T00:06:13.865760
MEAN_MOTION    = 15.82491292
ECCENTRICITY   = .00056528
INCLINATION    = 51.6239
RA_OF_ASC_NODE = 299.7561
ARG_OF_PERICENTER = 127.1920
MEAN_ANOMALY   = 232.9599

EPHEMERIS_TYPE = 0
CLASSIFICATION_TYPE = U
NORAD_CAT_ID   = 65732
ELEMENT_SET_NO = 999
REV_AT_EPOCH   = 1919
BSTAR          = .15176273E-2
MEAN_MOTION_DOT = .33584E-2
MEAN_MOTION_DDOT = 0

CCSDS_OMM_VERS = 2.0
CREATION_DATE  = 
ORIGINATOR     = 

OBJECT_NAME    = GHS-01
OBJECT_ID      = 1998-067XM
CENTER_NAME    = EARTH
REF_FRAME      = TEME
TIME_SYSTEM    = UTC
MEAN_ELEMENT_THEORY = SGP/SGP4

EPOCH          = 2026-01-19T06:14:45.226752
MEAN_MOTION    = 16.15324625
ECCENTRICITY   = .00072378
INCLINATION    = 51.6179
RA_OF_ASC_NODE = 298.4544
ARG_OF_PERICENTER = 176.5958
MEAN_ANOMALY   = 183.5109

EPHEMERIS_TYPE = 0
CLASSIFICATION_TYPE = U
NORAD_CAT_ID   = 65733
ELEMENT_SET_NO = 999
REV_AT_EPOCH   = 1914
BSTAR          = .16629463E-2
MEAN_MOTION_DOT = .2137156E-1
MEAN_MOTION_DDOT = .51261268E-2

CCSDS_OMM_VERS = 2.0
CREATION_DATE  = 
ORIGINATOR     = 

OBJECT_NAME    = YOTSUBA-KULOVER
OBJECT_ID      = 1998-067XN
CENTER_NAME    = EARTH
REF_FRAME      = TEME
TIME_SYSTEM    = UTC
MEAN_ELEMENT_THEORY = SGP/SGP4

EPOCH          = 2026-01-20T00:35:13.186752
MEAN_MOTION    = 15.65739151
ECCENTRICITY   = .00043261
INCLINATION    = 51.6285
RA_OF_ASC_NODE = 306.6936
ARG_OF_PERICENTER = 132.7917
MEAN_ANOMALY   = 227.3443

EPHEMERIS_TYPE = 0
CLASSIFICATION_TYPE = U
NORAD_CAT_ID   = 65941
ELEMENT_SET_NO = 999
REV_AT_EPOCH   = 1584
BSTAR          = .12199895E-2
MEAN_MOTION_DOT = .127352E-2
MEAN_MOTION_DDOT = 0

CCSDS_OMM_VERS = 2.0
CREATION_DATE  = 
ORIGINATOR     = 

OBJECT_NAME    = BOTAN
OBJECT_ID      = 1998-067XP
CENTER_NAME    = EARTH
REF_FRAME      = TEME
TIME_SYSTEM    = UTC
MEAN_ELEMENT_THEORY = SGP/SGP4

EPOCH          = 2026-01-20T00:40:55.938144
MEAN_MOTION    = 15.73396611
ECCENTRICITY   = .00049739
INCLINATION    = 51.6260
RA_OF_ASC_NODE = 304.4536
ARG_OF_PERICENTER = 136.1368
MEAN_ANOMALY   = 224.0027

EPHEMERIS_TYPE = 0
CLASSIFICATION_TYPE = U
NORAD_CAT_ID   = 65942
ELEMENT_SET_NO = 999
REV_AT_EPOCH   = 1587
BSTAR          = .15077183E-2
MEAN_MOTION_DOT = .218888E-2
MEAN_MOTION_DDOT = 0

CCSDS_OMM_VERS = 2.0
CREATION_DATE  = 
ORIGINATOR     = 

OBJECT_NAME    = E-KAGAKU-1
OBJECT_ID      = 1998-067XQ
CENTER_NAME    = EARTH
REF_FRAME      = TEME
TIME_SYSTEM    = UTC
MEAN_ELEMENT_THEORY = SGP/SGP4

EPOCH          = 2026-01-20T00:35:11.142528
MEAN_MOTION    = 15.65710860
ECCENTRICITY   = .00029102
INCLINATION    = 51.6300
RA_OF_ASC_NODE = 306.7010
ARG_OF_PERICENTER = 137.5395
MEAN_ANOMALY   = 222.5827

EPHEMERIS_TYPE = 0
CLASSIFICATION_TYPE = U
NORAD_CAT_ID   = 65943
ELEMENT_SET_NO = 999
REV_AT_EPOCH   = 1584
BSTAR          = .11985559E-2
MEAN_MOTION_DOT = .124899E-2
MEAN_MOTION_DDOT = 0

CCSDS_OMM_VERS = 2.0
CREATION_DATE  = 
ORIGINATOR     = 

OBJECT_NAME    = HRC MONOBLOCK CAMERA
OBJECT_ID      = 1998-067XR
CENTER_NAME    = EARTH
REF_FRAME      = TEME
TIME_SYSTEM    = UTC
MEAN_ELEMENT_THEORY = SGP/SGP4

EPOCH          = 2026-01-20T04:42:40.947264
MEAN_MOTION    = 15.57091497
ECCENTRICITY   = .00009042
INCLINATION    = 51.6310
RA_OF_ASC_NODE = 309.3430
ARG_OF_PERICENTER = 25.4865
MEAN_ANOMALY   = 334.6172

EPHEMERIS_TYPE = 0
CLASSIFICATION_TYPE = U
NORAD_CAT_ID   = 66052
ELEMENT_SET_NO = 999
REV_AT_EPOCH   = 1482
BSTAR          = .94663538E-3
MEAN_MOTION_DOT = .70025E-3
MEAN_MOTION_DDOT = 0

CCSDS_OMM_VERS = 2.0
CREATION_DATE  = 
ORIGINATOR     = 

OBJECT_NAME    = HTV-X1
OBJECT_ID      = 2025-241A
CENTER_NAME    = EARTH
REF_FRAME      = TEME
TIME_SYSTEM    = UTC
MEAN_ELEMENT_THEORY = SGP/SGP4

EPOCH          = 2026-01-20T04:12:08.025696
MEAN_MOTION    = 15.49442598
ECCENTRICITY   = .00077851
INCLINATION    = 51.6334
RA_OF_ASC_NODE = 312.1983
ARG_OF_PERICENTER = 38.3265
MEAN_ANOMALY   = 321.8276

EPHEMERIS_TYPE = 0
CLASSIFICATION_TYPE = U
NORAD_CAT_ID   = 66174
ELEMENT_SET_NO = 999
REV_AT_EPOCH   = 51
BSTAR          = .38547648E-3
MEAN_MOTION_DOT = .21194E-3
MEAN_MOTION_DDOT = 0

CCSDS_OMM_VERS = 2.0
CREATION_DATE  = 
ORIGINATOR     = 

OBJECT_NAME    = SZ-21 MODULE
OBJECT_ID      = 2025-246C
CENTER_NAME    = EARTH
REF_FRAME      = TEME
TIME_SYSTEM    = UTC
MEAN_ELEMENT_THEORY = SGP/SGP4

EPOCH          = 2026-01-19T17:37:14.644992
MEAN_MOTION    = 15.64766041
ECCENTRICITY   = .0002737
INCLINATION    = 41.4760
RA_OF_ASC_NODE = 143.8781
ARG_OF_PERICENTER = 205.5931
MEAN_ANOMALY   = 154.4774

EPHEMERIS_TYPE = 0
CLASSIFICATION_TYPE = U
NORAD_CAT_ID   = 66515
ELEMENT_SET_NO = 999
REV_AT_EPOCH   = 1039
BSTAR          = .287037E-3
MEAN_MOTION_DOT = .28507E-3
MEAN_MOTION_DDOT = 0

CCSDS_OMM_VERS = 2.0
CREATION_DATE  = 
ORIGINATOR     = 

OBJECT_NAME    = SHENZHOU-22
OBJECT_ID      = 2025-272A
CENTER_NAME    = EARTH
REF_FRAME      = TEME
TIME_SYSTEM    = UTC
MEAN_ELEMENT_THEORY = SGP/SGP4

EPOCH          = 2026-01-20T07:39:07.625664
MEAN_MOTION    = 15.60744012
ECCENTRICITY   = .00107312
INCLINATION    = 41.4666
RA_OF_ASC_NODE = 142.2108
ARG_OF_PERICENTER = 322.2833
MEAN_ANOMALY   = 37.7252

EPHEMERIS_TYPE = 0
CLASSIFICATION_TYPE = U
NORAD_CAT_ID   = 66645
ELEMENT_SET_NO = 999
REV_AT_EPOCH   = 26764
BSTAR          = .35887715E-3
MEAN_MOTION_DOT = .30571E-3
MEAN_MOTION_DDOT = 0

CCSDS_OMM_VERS = 2.0
CREATION_DATE  = 
ORIGINATOR     = 

OBJECT_NAME    = SOYUZ-MS 28
OBJECT_ID      = 2025-275A
CENTER_NAME    = EARTH
REF_FRAME      = TEME
TIME_SYSTEM    = UTC
MEAN_ELEMENT_THEORY = SGP/SGP4

EPOCH          = 2026-01-20T04:12:08.025696
MEAN_MOTION    = 15.49442598
ECCENTRICITY   = .00077851
INCLINATION    = 51.6334
RA_OF_ASC_NODE = 312.1983
ARG_OF_PERICENTER = 38.3265
MEAN_ANOMALY   = 321.8276

EPHEMERIS_TYPE = 0
CLASSIFICATION_TYPE = U
NORAD_CAT_ID   = 66664
ELEMENT_SET_NO = 999
REV_AT_EPOCH   = 128
BSTAR          = .38547648E-3
MEAN_MOTION_DOT = .21194E-3
MEAN_MOTION_DDOT = 0

